IRIDIUM 156             
1 43576U 18061H   24189.85067695  .00000066  00000+0  16531-4 0  9992
2 43576  86.3980 353.1615 0002294  87.9826 272.1632 14.34217874311696
IRIDIUM 164             
1 43577U 18061J   24190.18049157  .00000112  00000+0  32959-4 0  9998
2 43577  86.3982 353.0530 0002037  83.8334 276.3094 14.34217929311798
IRIDIUM 159             
1 43578U 18061K   24189.86970411  .00000083  00000+0  22502-4 0  9998
2 43578  86.3980 353.1345 0001922  89.6886 270.4530 14.34217750311714
IRIDIUM 180             
1 43922U 19002A   24189.38082122  .00000020  00000+0  24344-6 0  9996
2 43922  86.3965 290.2187 0002009  97.6460 262.4964 14.34217707287254
IRIDIUM 176             
1 43923U 19002B   24189.37224196  .00001430  00000+0  22300-3 0  9998
2 43923  86.6097 290.2426 0002155  92.0484 268.0980 14.72238920294819
IRIDIUM 168             
1 43924U 19002C   24189.72332060  .00000111  00000+0  32615-4 0  9994
2 43924  86.3968 290.1327 0002238  93.7143 266.4309 14.34217848287289
IRIDIUM 173             
1 43925U 19002D   24189.71063464  .00000242  00000+0  79256-4 0  9990
2 43925  86.3967 290.0562 0002139  94.0589 266.0851 14.34219187287272
IRIDIUM 169             
1 43926U 19002E   24189.85300796  .00000507  00000+0  15914-3 0  9992
2 43926  86.4239 321.6242 0003445 129.4380 230.7123 14.38627706288247
IRIDIUM 172             
1 43927U 19002F   24190.19267344  .00000180  00000+0  57142-4 0  9990
2 43927  86.3970 289.8606 0002140  93.7129 266.4311 14.34217235287346
IRIDIUM 175             
1 43928U 19002G   24190.18220829  .00001278  00000+0  19880-3 0  9992
2 43928  86.1501 261.8577 0002237 100.7683 259.3786 14.72234427294926
IRIDIUM 171             
1 43929U 19002H   24189.82480279  .00000056  00000+0  12940-4 0  9993
2 43929  86.3977 290.2421 0002279  89.1836 270.9621 14.34218219287283
IRIDIUM 170             
1 43930U 19002J   24189.78623047  .00001418  00000+0  22109-3 0  9992
2 43930  86.6096 290.0745 0002326  94.5504 265.5978 14.72237910294882
IRIDIUM 167             
1 43931U 19002K   24189.33007691  .00000039  00000+0  69311-5 0  9991
2 43931  86.3967 290.2368 0002275  93.3157 266.8299 14.34215907287213
IRIDIUM 181             
1 56726U 23068S   24189.83274369  .00000537  00000+0  15295-3 0  9990
2 56726  86.8649 344.7625 0002474  91.8544 268.2941 14.43584854 60114
IRIDIUM 177             
1 56727U 23068T   24189.84376175  .00002107  00000+0  27386-3 0  9999
2 56727  86.1987 305.5517 0002424  84.7693 275.3805 14.80218347 61435
IRIDIUM 174             
1 56728U 23068U   24189.83832399  .00002078  00000+0  27000-3 0  9994
2 56728  86.1993 305.6596 0002371  93.6339 266.5153 14.80219455 61437
IRIDIUM 178             
1 56729U 23068V   24189.42727996  .00001863  00000+0  24182-3 0  9995
2 56729  86.5796 324.2789 0002247 100.3446 259.8029 14.80215754 61379
IRIDIUM 179             
1 56730U 23068W   24189.42183853  .00001838  00000+0  23860-3 0  9999
2 56730  86.6805 328.6705 0002430  98.3320 261.8177 14.80211550 61377
